{
  "norad_id": 50574,
  "name": "TJS-9",
  "history": [
    {
      "epoch": "2026-03-28T22:16:57.836352Z",
      "apogee_km": 35799.01514122808,
      "perigee_km": 35772.44178665809,
      "latitude_deg": 0.04785220961096249,
      "longitude_deg": 137.16195788741732,
      "height_km": 35792.56488085067,
      "semi_major_axis_km": 42163.86546394309,
      "eccentricity": 0.00031512,
      "inclination_deg": 0.0845,
      "raan_deg": 278.5259,
      "arg_perigee_deg": 143.1715,
      "mean_anomaly_deg": 236.0538,
      "mean_motion_rev_day": 1.00274876
    },
    {
      "epoch": "2026-03-29T05:07:40.268064Z",
      "apogee_km": 35799.07242477016,
      "perigee_km": 35772.43327916168,
      "latitude_deg": 0.05293040959952468,
      "longitude_deg": 137.1827453373934,
      "height_km": 35772.796652640056,
      "semi_major_axis_km": 42163.88985196593,
      "eccentricity": 0.0003159,
      "inclination_deg": 0.0837,
      "raan_deg": 278.6175,
      "arg_perigee_deg": 142.9568,
      "mean_anomaly_deg": 339.1384,
      "mean_motion_rev_day": 1.00274789
    }
  ]
}